STARLINK-2022           
1 47643U 21012Z   24198.31769626  .00000637  00000+0  61634-4 0  9993
2 47643  53.0543 231.2815 0001179  90.0838 270.0286 15.06392908189628
